[{"OBJECT_NAME":"STARLINK-31872","OBJECT_ID":"2024-106A","EPOCH":"2026-03-09T03:10:29.366112","MEAN_MOTION":15.27559083,"ECCENTRICITY":0.00022667,"INCLINATION":43.0037,"RA_OF_ASC_NODE":336.0083,"ARG_OF_PERICENTER":281.8013,"MEAN_ANOMALY":78.2584,"EPHEMERIS_TYPE":0,"CLASSIFICATION_TYPE":"U","NORAD_CAT_ID":59922,"ELEMENT_SET_NO":999,"REV_AT_EPOCH":10047,"BSTAR":2.7932143e-5,"MEAN_MOTION_DOT":5.06e-6,"MEAN_MOTION_DDOT":0},{"OBJECT_NAME":"FLOCK 4G-17","OBJECT_ID":"2025-009CA","EPOCH":"2026-03-09T22:51:51.984864","MEAN_MOTION":15.27385439,"ECCENTRICITY":0.00036407,"INCLINATION":97.3966,"RA_OF_ASC_NODE":151.0229,"ARG_OF_PERICENTER":339.6132,"MEAN_ANOMALY":20.4962,"EPHEMERIS_TYPE":0,"CLASSIFICATION_TYPE":"U","NORAD_CAT_ID":62681,"ELEMENT_SET_NO":999,"REV_AT_EPOCH":12139,"BSTAR":0.00053710713,"MEAN_MOTION_DOT":0.00014342,"MEAN_MOTION_DDOT":0}]
